ONEWEB-0229             
1 48779U 21045N   25304.50947815 -.00000037  00000+0 -13248-3 0  9992
2 48779  87.8961 304.8215 0001867  95.6010 264.5333 13.15549498214341
ONEWEB-0228             
1 48780U 21045P   25304.77106792  .00000203  00000+0  50430-3 0  9991
2 48780  87.8969 304.7491 0001928  94.4846 265.6505 13.15549727214290
ONEWEB-0232             
1 48781U 21045Q   25304.51740161  .00000081  00000+0  18232-3 0  9996
2 48781  87.8968 304.7905 0001875  92.5185 267.6160 13.15550263214584
ONEWEB-0231             
1 48782U 21045R   25304.49522574 -.00000088  00000+0 -26660-3 0  9993
2 48782  87.8956 304.8432 0001950 100.4149 259.7201 13.15550050214279
ONEWEB-0234             
1 48783U 21045S   25304.53311100  .00000181  00000+0  44538-3 0  9996
2 48783  87.8962 304.8075 0002446  72.2993 287.8405 13.15549699214415
ONEWEB-0238             
1 48784U 21045T   25304.76156172  .00000229  00000+0  57405-3 0  9998
2 48784  87.8957 304.7563 0002034  82.4774 277.6587 13.15547420214344
ONEWEB-0240             
1 48785U 21045U   25304.70676738  .00000152  00000+0  36983-3 0  9991
2 48785  87.8967 304.7555 0002259  93.0526 267.0863 13.15548096214361
ONEWEB-0246             
1 48786U 21045V   25304.70121786  .00000136  00000+0  32795-3 0  9999
2 48786  87.8970 304.7700 0001823  96.3293 263.8045 13.15548907214234
